STARLINK-35809          
1 66373U 25254AB  25336.20451139  .00197912  00000+0  13206-2 0  9999
2 66373  53.1569 327.1581 0001211 108.6954 251.4198 15.74249924  4024
STARLINK-35831          
1 66374U 25254AC  25336.26765927  .00224750  00000+0  14924-2 0  9998
2 66374  53.1569 326.8407 0001255  96.9476 263.1687 15.74279865  4035
STARLINK-35826          
1 66375U 25254AD  25336.20383481  .00285015  00000+0  18778-2 0  9996
2 66375  53.1566 327.1531 0001364 129.8567 230.2574 15.74280996  4029
SHIYAN-32 01            
1 66376U 25255A   25336.25703156  .00023738  00000+0  55054-3 0  9999
2 66376  52.9964 227.8956 0013382   9.6935 350.4325 15.42220728  3731
CZ-11 DEB               
1 66377U 25255B   25336.24607280  .00043578  00000+0  96035-3 0  9998
2 66377  52.9965 227.8262 0013913   7.2692 352.8511 15.43422506  3593
SHIYAN-32 02            
1 66378U 25255C   25336.24137862  .00054531  00000+0  11781-2 0  9998
2 66378  52.9979 227.7986 0012633   8.6569 351.4651 15.43930613  3590
SHIYAN-32 03            
1 66379U 25255D   25336.18682331  .00024407  00000+0  55854-3 0  9997
2 66379  52.9971 228.1704 0015398  10.3875 349.7444 15.42574599  3605
STARLINK-35139          
1 66380U 25257A   25336.25003472  .00044604  00000+0  11204-2 0  9993
2 66380  53.1590 314.0828 0001145  91.3004 217.1914 15.39570400  4757
STARLINK-35158          
1 66381U 25257B   25336.25003472  .00041469  00000+0  10427-2 0  9996
2 66381  53.1591 314.0786 0001415  94.7622 215.5668 15.39571328  4810
STARLINK-35639          
1 66382U 25257C   25336.25003472 -.01663638  00000+0 -42212-1 0  9994
2 66382  53.1593 314.0367 0001695  95.2100 235.2894 15.42553293  4810
STARLINK-35690          
1 66383U 25257D   25336.25003472 -.02032637  00000+0 -46836-1 0  9991
2 66383  53.1591 314.0049 0001235  95.3138 250.7829 15.45507597  4817
STARLINK-35662          
1 66384U 25257E   25336.25003472 -.02027394  00000+0 -46720-1 0  9998
2 66384  53.1588 314.0021 0001289  88.7973 259.1812 15.45494997  4810
