CCSDS_OMM_VERS = 2.0
CREATION_DATE  = 
ORIGINATOR     = 

OBJECT_NAME    = STARLINK-35809
OBJECT_ID      = 2025-254AB
CENTER_NAME    = EARTH
REF_FRAME      = TEME
TIME_SYSTEM    = UTC
MEAN_ELEMENT_THEORY = SGP/SGP4

EPOCH          = 2025-12-02T04:54:29.784096
MEAN_MOTION    = 15.74249924
ECCENTRICITY   = .00012113
INCLINATION    = 53.1569
RA_OF_ASC_NODE = 327.1581
ARG_OF_PERICENTER = 108.6954
MEAN_ANOMALY   = 251.4198

EPHEMERIS_TYPE = 0
CLASSIFICATION_TYPE = U
NORAD_CAT_ID   = 66373
ELEMENT_SET_NO = 999
REV_AT_EPOCH   = 402
BSTAR          = .13206433E-2
MEAN_MOTION_DOT = .197912E-2
MEAN_MOTION_DDOT = 0

CCSDS_OMM_VERS = 2.0
CREATION_DATE  = 
ORIGINATOR     = 

OBJECT_NAME    = STARLINK-35831
OBJECT_ID      = 2025-254AC
CENTER_NAME    = EARTH
REF_FRAME      = TEME
TIME_SYSTEM    = UTC
MEAN_ELEMENT_THEORY = SGP/SGP4

EPOCH          = 2025-12-02T06:25:25.760928
MEAN_MOTION    = 15.74279865
ECCENTRICITY   = .00012558
INCLINATION    = 53.1569
RA_OF_ASC_NODE = 326.8407
ARG_OF_PERICENTER = 96.9476
MEAN_ANOMALY   = 263.1687

EPHEMERIS_TYPE = 0
CLASSIFICATION_TYPE = U
NORAD_CAT_ID   = 66374
ELEMENT_SET_NO = 999
REV_AT_EPOCH   = 403
BSTAR          = .14924242E-2
MEAN_MOTION_DOT = .22475E-2
MEAN_MOTION_DDOT = 0

CCSDS_OMM_VERS = 2.0
CREATION_DATE  = 
ORIGINATOR     = 

OBJECT_NAME    = STARLINK-35826
OBJECT_ID      = 2025-254AD
CENTER_NAME    = EARTH
REF_FRAME      = TEME
TIME_SYSTEM    = UTC
MEAN_ELEMENT_THEORY = SGP/SGP4

EPOCH          = 2025-12-02T04:53:31.327584
MEAN_MOTION    = 15.74280996
ECCENTRICITY   = .00013647
INCLINATION    = 53.1566
RA_OF_ASC_NODE = 327.1531
ARG_OF_PERICENTER = 129.8567
MEAN_ANOMALY   = 230.2574

EPHEMERIS_TYPE = 0
CLASSIFICATION_TYPE = U
NORAD_CAT_ID   = 66375
ELEMENT_SET_NO = 999
REV_AT_EPOCH   = 402
BSTAR          = .18777904E-2
MEAN_MOTION_DOT = .285015E-2
MEAN_MOTION_DDOT = 0

CCSDS_OMM_VERS = 2.0
CREATION_DATE  = 
ORIGINATOR     = 

OBJECT_NAME    = SHIYAN-32 01
OBJECT_ID      = 2025-255A
CENTER_NAME    = EARTH
REF_FRAME      = TEME
TIME_SYSTEM    = UTC
MEAN_ELEMENT_THEORY = SGP/SGP4

EPOCH          = 2025-12-02T06:10:07.526784
MEAN_MOTION    = 15.42220728
ECCENTRICITY   = .00133822
INCLINATION    = 52.9964
RA_OF_ASC_NODE = 227.8956
ARG_OF_PERICENTER = 9.6935
MEAN_ANOMALY   = 350.4325

EPHEMERIS_TYPE = 0
CLASSIFICATION_TYPE = U
NORAD_CAT_ID   = 66376
ELEMENT_SET_NO = 999
REV_AT_EPOCH   = 373
BSTAR          = .55053782E-3
MEAN_MOTION_DOT = .23738E-3
MEAN_MOTION_DDOT = 0

CCSDS_OMM_VERS = 2.0
CREATION_DATE  = 
ORIGINATOR     = 

OBJECT_NAME    = CZ-11 DEB
OBJECT_ID      = 2025-255B
CENTER_NAME    = EARTH
REF_FRAME      = TEME
TIME_SYSTEM    = UTC
MEAN_ELEMENT_THEORY = SGP/SGP4

EPOCH          = 2025-12-02T05:54:20.689920
MEAN_MOTION    = 15.43422506
ECCENTRICITY   = .00139135
INCLINATION    = 52.9965
RA_OF_ASC_NODE = 227.8262
ARG_OF_PERICENTER = 7.2692
MEAN_ANOMALY   = 352.8511

EPHEMERIS_TYPE = 0
CLASSIFICATION_TYPE = U
NORAD_CAT_ID   = 66377
ELEMENT_SET_NO = 999
REV_AT_EPOCH   = 359
BSTAR          = .96034802E-3
MEAN_MOTION_DOT = .43578E-3
MEAN_MOTION_DDOT = 0

CCSDS_OMM_VERS = 2.0
CREATION_DATE  = 
ORIGINATOR     = 

OBJECT_NAME    = SHIYAN-32 02
OBJECT_ID      = 2025-255C
CENTER_NAME    = EARTH
REF_FRAME      = TEME
TIME_SYSTEM    = UTC
MEAN_ELEMENT_THEORY = SGP/SGP4

EPOCH          = 2025-12-02T05:47:35.112768
MEAN_MOTION    = 15.43930613
ECCENTRICITY   = .00126338
INCLINATION    = 52.9979
RA_OF_ASC_NODE = 227.7986
ARG_OF_PERICENTER = 8.6569
MEAN_ANOMALY   = 351.4651

EPHEMERIS_TYPE = 0
CLASSIFICATION_TYPE = U
NORAD_CAT_ID   = 66378
ELEMENT_SET_NO = 999
REV_AT_EPOCH   = 359
BSTAR          = .11780523E-2
MEAN_MOTION_DOT = .54531E-3
MEAN_MOTION_DDOT = 0

CCSDS_OMM_VERS = 2.0
CREATION_DATE  = 
ORIGINATOR     = 

OBJECT_NAME    = SHIYAN-32 03
OBJECT_ID      = 2025-255D
CENTER_NAME    = EARTH
REF_FRAME      = TEME
TIME_SYSTEM    = UTC
MEAN_ELEMENT_THEORY = SGP/SGP4

EPOCH          = 2025-12-02T04:29:01.533984
MEAN_MOTION    = 15.42574599
ECCENTRICITY   = .00153989
INCLINATION    = 52.9971
RA_OF_ASC_NODE = 228.1704
ARG_OF_PERICENTER = 10.3875
MEAN_ANOMALY   = 349.7444

EPHEMERIS_TYPE = 0
CLASSIFICATION_TYPE = U
NORAD_CAT_ID   = 66379
ELEMENT_SET_NO = 999
REV_AT_EPOCH   = 360
BSTAR          = .55854174E-3
MEAN_MOTION_DOT = .24407E-3
MEAN_MOTION_DDOT = 0

CCSDS_OMM_VERS = 2.0
CREATION_DATE  = 
ORIGINATOR     = 

OBJECT_NAME    = STARLINK-35139
OBJECT_ID      = 2025-257A
CENTER_NAME    = EARTH
REF_FRAME      = TEME
TIME_SYSTEM    = UTC
MEAN_ELEMENT_THEORY = SGP/SGP4

EPOCH          = 2025-12-02T06:00:02.999808
MEAN_MOTION    = 15.39570400
ECCENTRICITY   = .00011451
INCLINATION    = 53.1590
RA_OF_ASC_NODE = 314.0828
ARG_OF_PERICENTER = 91.3004
MEAN_ANOMALY   = 217.1914

EPHEMERIS_TYPE = 0
CLASSIFICATION_TYPE = U
NORAD_CAT_ID   = 66380
ELEMENT_SET_NO = 999
REV_AT_EPOCH   = 475
BSTAR          = .11203799E-2
MEAN_MOTION_DOT = .44604E-3
MEAN_MOTION_DDOT = 0

CCSDS_OMM_VERS = 2.0
CREATION_DATE  = 
ORIGINATOR     = 

OBJECT_NAME    = STARLINK-35158
OBJECT_ID      = 2025-257B
CENTER_NAME    = EARTH
REF_FRAME      = TEME
TIME_SYSTEM    = UTC
MEAN_ELEMENT_THEORY = SGP/SGP4

EPOCH          = 2025-12-02T06:00:02.999808
MEAN_MOTION    = 15.39571328
ECCENTRICITY   = .00014158
INCLINATION    = 53.1591
RA_OF_ASC_NODE = 314.0786
ARG_OF_PERICENTER = 94.7622
MEAN_ANOMALY   = 215.5668

EPHEMERIS_TYPE = 0
CLASSIFICATION_TYPE = U
NORAD_CAT_ID   = 66381
ELEMENT_SET_NO = 999
REV_AT_EPOCH   = 481
BSTAR          = .10427207E-2
MEAN_MOTION_DOT = .41469E-3
MEAN_MOTION_DDOT = 0

CCSDS_OMM_VERS = 2.0
CREATION_DATE  = 
ORIGINATOR     = 

OBJECT_NAME    = STARLINK-35639
OBJECT_ID      = 2025-257C
CENTER_NAME    = EARTH
REF_FRAME      = TEME
TIME_SYSTEM    = UTC
MEAN_ELEMENT_THEORY = SGP/SGP4

EPOCH          = 2025-12-02T06:00:02.999808
MEAN_MOTION    = 15.42553293
ECCENTRICITY   = .00016957
INCLINATION    = 53.1593
RA_OF_ASC_NODE = 314.0367
ARG_OF_PERICENTER = 95.2100
MEAN_ANOMALY   = 235.2894

EPHEMERIS_TYPE = 0
CLASSIFICATION_TYPE = U
NORAD_CAT_ID   = 66382
ELEMENT_SET_NO = 999
REV_AT_EPOCH   = 481
BSTAR          = -.42212223E-1
MEAN_MOTION_DOT = -.1663638E-1
MEAN_MOTION_DDOT = 0

CCSDS_OMM_VERS = 2.0
CREATION_DATE  = 
ORIGINATOR     = 

OBJECT_NAME    = STARLINK-35690
OBJECT_ID      = 2025-257D
CENTER_NAME    = EARTH
REF_FRAME      = TEME
TIME_SYSTEM    = UTC
MEAN_ELEMENT_THEORY = SGP/SGP4

EPOCH          = 2025-12-02T06:00:02.999808
MEAN_MOTION    = 15.45507597
ECCENTRICITY   = .00012357
INCLINATION    = 53.1591
RA_OF_ASC_NODE = 314.0049
ARG_OF_PERICENTER = 95.3138
MEAN_ANOMALY   = 250.7829

EPHEMERIS_TYPE = 0
CLASSIFICATION_TYPE = U
NORAD_CAT_ID   = 66383
ELEMENT_SET_NO = 999
REV_AT_EPOCH   = 481
BSTAR          = -.46835643E-1
MEAN_MOTION_DOT = -.2032637E-1
MEAN_MOTION_DDOT = 0

CCSDS_OMM_VERS = 2.0
CREATION_DATE  = 
ORIGINATOR     = 

OBJECT_NAME    = STARLINK-35662
OBJECT_ID      = 2025-257E
CENTER_NAME    = EARTH
REF_FRAME      = TEME
TIME_SYSTEM    = UTC
MEAN_ELEMENT_THEORY = SGP/SGP4

EPOCH          = 2025-12-02T06:00:02.999808
MEAN_MOTION    = 15.45494997
ECCENTRICITY   = .0001289
INCLINATION    = 53.1588
RA_OF_ASC_NODE = 314.0021
ARG_OF_PERICENTER = 88.7973
MEAN_ANOMALY   = 259.1812

EPHEMERIS_TYPE = 0
CLASSIFICATION_TYPE = U
NORAD_CAT_ID   = 66384
ELEMENT_SET_NO = 999
REV_AT_EPOCH   = 481
BSTAR          = -.46719612E-1
MEAN_MOTION_DOT = -.2027394E-1
MEAN_MOTION_DDOT = 0

